H1 CPF  1  DLR 2021 09 03 10  7462 technosat            
H2  1704205 6203    42829 2021 09 03 00 00 00 2021 09 10 00 00 00    60 1 1  0 0 0
H9
10 0 59463  50400.000000  0         41853.514      -4666947.767       5185614.370
10 0 59463  50460.000000  0        -67988.742      -4327082.862       5471528.311
10 0 59463  50520.000000  0       -174488.402      -3968122.953       5734326.686
10 0 59463  50580.000000  0       -277038.575      -3591608.790       5972904.125
10 0 59463  50640.000000  0       -375062.886      -3199158.884       6186257.439
10 0 59463  50700.000000  0       -468018.505      -2792462.446       6373489.539
10 0 59463  50760.000000  0       -555398.959      -2373272.130       6533812.941
10 0 59463  50820.000000  0       -636736.722      -1943396.510       6666552.907
10 0 59463  50880.000000  0       -711605.570      -1504692.336       6771150.129
10 0 59463  50940.000000  0       -779622.718      -1059056.555       6847163.008
10 0 59463  51000.000000  0       -840450.710       -608418.162       6894269.439
10 0 59463  51060.000000  0       -893799.067       -154729.917       6912268.098
10 0 59463  51120.000000  0       -939425.647        300040.001       6901079.290
10 0 59463  51180.000000  0       -977137.737        753916.449       6860745.331
10 0 59463  51240.000000  0      -1006792.860       1204925.809       6791430.436
10 0 59463  51300.000000  0      -1028299.321       1651104.453       6693420.171
10 0 59463  51360.000000  0      -1041616.484       2090507.247       6567120.441
10 0 59463  51420.000000  0      -1046754.768       2521215.966       6413055.981
10 0 59463  51480.000000  0      -1043775.381       2941347.648       6231868.439
10 0 59463  51540.000000  0      -1032789.795       3349062.905       6024313.957
10 0 59463  51600.000000  0      -1013958.904       3742574.036       5791260.227
10 0 59463  51660.000000  0       -987491.892       4120152.947       5533683.161
10 0 59463  51720.000000  0       -953644.873       4480138.922       5252663.116
10 0 59463  51780.000000  0       -912719.293       4820946.178       4949380.655
10 0 59463  51840.000000  0       -865060.057       5141071.190       4625111.793
10 0 59463  51900.000000  0       -811053.340       5439099.611       4281222.728
10 0 59463  51960.000000  0       -751124.184       5713712.695       3919164.242
10 0 59463  52020.000000  0       -685733.927       5963693.452       3540465.913
10 0 59463  52080.000000  0       -615377.458       6187932.593       3146729.829
10 0 59463  52140.000000  0       -540580.210       6385434.033       2739623.708
10 0 59463  52200.000000  0       -461894.888       6555319.598       2320873.582
10 0 59463  52260.000000  0       -379898.045       6696833.174       1892256.455
10 0 59463  52320.000000  0       -295186.532       6809344.435       1455592.629
10 0 59463  52380.000000  0       -208373.826       6892351.907       1012737.765
10 0 59463  52440.000000  0       -120086.259       6945485.411        565574.794
10 0 59463  52500.000000  0        -30959.152       6968507.952        116005.677
10 0 59463  52560.000000  0         58367.126       6961316.954       -334057.029
10 0 59463  52620.000000  0        147251.143       6923944.727       -782698.685
10 0 59463  52680.000000  0        235054.341       6856558.232      -1228011.033
10 0 59463  52740.000000  0        321144.914       6759458.203      -1668100.601
10 0 59463  52800.000000  0        404901.665       6633077.642      -2101096.997
10 0 59463  52860.000000  0        485717.795       6477979.688      -2525161.086
10 0 59463  52920.000000  0        563004.632       6294854.880      -2938493.000
10 0 59463  52980.000000  0        636195.236       6084517.798      -3339339.967
10 0 59463  53040.000000  0        704747.869       5847903.104      -3726003.874
10 0 59463  53100.000000  0        768149.314       5586061.022      -4096848.537
10 0 59463  53160.000000  0        825918.020       5300152.296      -4450306.656
10 0 59463  53220.000000  0        877607.053       4991442.650      -4784886.390
10 0 59463  53280.000000  0        922806.848       4661296.806      -5099177.556
10 0 59463  53340.000000  0        961147.738       4311172.093      -5391857.417
10 0 59463  53400.000000  0        992302.222       3942611.705      -5661696.064
10 0 59463  53460.000000  0       1015986.984       3557237.595      -5907561.404
10 0 59463  53520.000000  0       1031964.672       3156743.042      -6128423.657
10 0 59463  53580.000000  0       1040045.427       2742884.969      -6323359.358
10 0 59463  53640.000000  0       1040088.124       2317476.079      -6491554.875
10 0 59463  53700.000000  0       1032001.356       1882376.878      -6632309.493
10 0 59463  53760.000000  0       1015744.138       1439487.507      -6745038.139
10 0 59463  53820.000000  0        991326.324        990739.379      -6829273.565
10 0 59463  53880.000000  0        958808.778        538086.809      -6884668.032
10 0 59463  53940.000000  0        918303.275         83498.553      -6910994.601
10 0 59463  54000.000000  0        869972.075       -371050.728      -6908147.886
10 0 59463  54060.000000  0        814027.239       -823588.914      -6876144.289
10 0 59463  54120.000000  0        750729.697      -1272154.817      -6815121.841
10 0 59463  54180.000000  0        680388.057      -1714806.505      -6725339.565
10 0 59463  54240.000000  0        603357.166      -2149629.498      -6607176.472
10 0 59463  54300.000000  0        520036.407      -2574744.959      -6461130.203
10 0 59463  54360.000000  0        430867.685      -2988317.862      -6287815.103
10 0 59463  54420.000000  0        336333.178      -3388564.908      -6087959.710
10 0 59463  54480.000000  0        236952.909      -3773762.161      -5862403.852
10 0 59463  54540.000000  0        133282.094      -4142252.489      -5612095.344
10 0 59463  54600.000000  0         25908.265      -4492452.764      -5338086.262
10 0 59463  54660.000000  0        -84551.833      -4822860.800      -5041528.754
10 0 59463  54720.000000  0       -197455.537      -5132061.957      -4723670.435
10 0 59463  54780.000000  0       -312137.730      -5418735.422      -4385849.341
10 0 59463  54840.000000  0       -427914.469      -5681660.083      -4029488.466
10 0 59463  54900.000000  0       -544086.744      -5919719.980      -3656089.904
10 0 59463  54960.000000  0       -659944.360      -6131909.285      -3267228.641
10 0 59463  55020.000000  0       -774769.935      -6317336.819      -2864546.018
10 0 59463  55080.000000  0       -887842.968      -6475230.107      -2449742.866
10 0 59463  55140.000000  0       -998443.963      -6604938.907      -2024572.290
10 0 59463  55200.000000  0      -1105858.584      -6705938.122      -1590832.176
10 0 59463  55260.000000  0      -1209381.805      -6777830.131      -1150357.496
10 0 59463  55320.000000  0      -1308322.054      -6820346.533       -705012.401
10 0 59463  55380.000000  0      -1402005.299      -6833349.247       -256682.178
10 0 59463  55440.000000  0      -1489779.084      -6816831.016        192734.885
10 0 59463  55500.000000  0      -1571016.471      -6770915.286        641335.728
10 0 59463  55560.000000  0      -1645119.875      -6695855.460       1087220.769
10 0 59463  55620.000000  0      -1711524.742      -6592033.517       1528502.153
10 0 59463  55680.000000  0      -1769703.069      -6459958.023       1963311.932
10 0 59463  55740.000000  0      -1819166.719      -6300261.521       2389810.161
10 0 59463  55800.000000  0      -1859470.541      -6113697.325       2806192.819
10 0 59463  55860.000000  0      -1890215.258      -5901135.757       3210699.540
10 0 59463  55920.000000  0      -1911050.103      -5663559.862       3601621.114
10 0 59463  55980.000000  0      -1921675.182      -5402060.615       3977306.729
10 0 59463  56040.000000  0      -1921843.579      -5117831.655       4336170.877
10 0 59463  56100.000000  0      -1911363.212      -4812163.639       4676699.961
10 0 59463  56160.000000  0      -1890098.414      -4486438.190       4997458.593
10 0 59463  56220.000000  0      -1857971.219      -4142121.445       5297095.586
10 0 59463  56280.000000  0      -1814962.334      -3780757.181       5574349.515
10 0 59463  56340.000000  0      -1761111.777      -3403959.675       5828053.789
10 0 59463  56400.000000  0      -1696519.202      -3013406.361       6057141.314
10 0 59463  56460.000000  0      -1621343.924      -2610830.282       6260648.723
10 0 59463  56520.000000  0      -1535804.659      -2198012.401       6437720.187
10 0 59463  56580.000000  0      -1440178.966      -1776773.746       6587610.857
10 0 59463  56640.000000  0      -1334802.417      -1348967.348       6709689.838
10 0 59463  56700.000000  0      -1220067.472       -916470.093       6803442.649
10 0 59463  56760.000000  0      -1096422.079       -481174.556       6868473.191
10 0 59463  56820.000000  0       -964367.976        -44980.880       6904505.333
10 0 59463  56880.000000  0       -824458.696        390211.412       6911384.100
10 0 59463  56940.000000  0       -677297.276        822511.622       6889076.363
10 0 59463  57000.000000  0       -523533.694       1250046.017       6837671.023
10 0 59463  57060.000000  0       -363862.049       1670965.856       6757378.748
10 0 59463  57120.000000  0       -199017.484       2083455.359       6648531.248
10 0 59463  57180.000000  0        -29772.852       2485739.486       6511580.022
10 0 59463  57240.000000  0        143064.801       2876091.516       6347094.708
10 0 59463  57300.000000  0        318657.989       3252840.523       6155760.992
10 0 59463  57360.000000  0        496142.729       3614378.626       5938377.993
10 0 59463  57420.000000  0        674632.698       3959167.970       5695855.180
10 0 59463  57480.000000  0        853223.548       4285747.406       5429208.852
10 0 59463  57540.000000  0       1030997.403       4592738.918       5139558.171
99
